[{"OBJECT_NAME":"CUTE-1.7+APD II (CO-65)","OBJECT_ID":"2008-021C","EPOCH":"2026-03-09T21:54:04.726080","MEAN_MOTION":15.08376872,"ECCENTRICITY":0.00096053,"INCLINATION":97.8207,"RA_OF_ASC_NODE":48.3884,"ARG_OF_PERICENTER":18.7003,"MEAN_ANOMALY":341.4575,"EPHEMERIS_TYPE":0,"CLASSIFICATION_TYPE":"U","NORAD_CAT_ID":32785,"ELEMENT_SET_NO":999,"REV_AT_EPOCH":97022,"BSTAR":0.00047295391,"MEAN_MOTION_DOT":7.295e-5,"MEAN_MOTION_DDOT":0},{"OBJECT_NAME":"STARLINK-5439","OBJECT_ID":"2022-175AB","EPOCH":"2026-03-09T21:56:38.223456","MEAN_MOTION":15.08830949,"ECCENTRICITY":0.00013224,"INCLINATION":53.2182,"RA_OF_ASC_NODE":28.0943,"ARG_OF_PERICENTER":93.3813,"MEAN_ANOMALY":266.7331,"EPHEMERIS_TYPE":0,"CLASSIFICATION_TYPE":"U","NORAD_CAT_ID":54783,"ELEMENT_SET_NO":999,"REV_AT_EPOCH":18016,"BSTAR":-2.0345e-7,"MEAN_MOTION_DOT":-2.91e-6,"MEAN_MOTION_DDOT":0}]
